UNKNOWN                 
1 82961U          25345.70180436  .00013837  00000+0  22329-1 0  9994
2 82961  99.8939 140.2520 0380897   5.3797 355.1243 13.23265569555577
UNKNOWN                 
1 82965U          25341.16703301  .00001630  00000+0  22495-2 0  9999
2 82965 100.1169  60.5165 0002674 181.9708 178.1421 13.59984266523698
UNKNOWN                 
1 83903U          25347.86494516 -.00000179  00000+0  00000+0 0  9993
2 83903   6.1822 290.6103 0124000 251.6004 310.2436  0.99112026 43679
UNKNOWN                 
1 83934U          25344.85026985 -.00000109  00000+0  00000+0 0  9997
2 83934   5.7866 297.5267 0232633 273.3759 209.9167  1.02662909 45260
UNKNOWN                 
1 83970U          25345.89906624  .00007996  00000+0  89373-2 0  9992
2 83970  18.2623 220.1604 5068416 142.7690 266.4241  5.32023457196164
UNKNOWN                 
1 84006U          25342.94811084 -.00000044  00000+0  00000+0 0  9996
2 84006  22.4615 178.3059 6147968  59.4088 347.1938  2.16233493 84143
UNKNOWN                 
1 84188U          25347.74272667  .00390029  00000+0  20358+0 0  9990
2 84188  65.1664 257.2358 3778180  18.5893 352.1900  7.56440069 41342
UNKNOWN                 
1 84232U          25348.09576087  .00010089  00000+0  82848-2 0  9992
2 84232  20.3198 273.4265 6560884  65.8004 347.5279  3.17246395104735
UNKNOWN                 
1 84236U          25343.56048229  .00000584  00000+0  43682-2 0  9997
2 84236   9.4466 336.4617 6895252  91.5164 341.7354  2.62521322113891
UNKNOWN                 
1 84292U          25343.14543195  .00004329  00000+0  23844-2 0  9994
2 84292  23.8474 165.3015 4565536 231.3629  78.1844  6.21471633227844
UNKNOWN                 
1 84406U          25344.68568743  .00000996  00000+0  54284-2 0  9995
2 84406 101.7175 128.8030 0040104  42.6195 331.9484 12.67327549 49038
UNKNOWN                 
1 84407U          25342.07922719  .00000290  00000+0  19402-1 0  9993
2 84407  19.4986 323.8623 7201971  59.3632 352.3088  2.05763792 75770
UNKNOWN                 
1 84575U          25346.84821688  .00000080  00000+0  40438-2 0  9992
2 84575  18.1265 158.4565 7100192  22.5812 357.2832  2.19886376 65469
UNKNOWN                 
1 84932U          25348.33314383  .00000732  00000+0  58924-2 0  9997
2 84932   2.0592 243.9665 6575740  56.3277 245.0691  2.99952894131824
UNKNOWN                 
1 85004U          25347.69700245  .00001495  00000+0  47145-3 0  9993
2 85004  98.4214 318.7226 0047297 158.1916  22.6483 14.41088480631032
UNKNOWN                 
1 85010U          25345.10301105  .00001526  00000+0  16388-2 0  9995
2 85010  99.2493 207.0624 0026077 260.5754 253.4346 13.75044402603695
UNKNOWN                 
1 85015U          25347.86687393  .00000722  00000+0  14888-3 0  9992
2 85015  74.0493  36.0485 0016585 300.7293  59.2240 14.62290590642779
UNKNOWN                 
1 85023U          25348.30815027  .00029179  00000+0  43810-2 0  9991
2 85023  99.8507   4.1427 0001764 327.9849  99.7497 14.74484920629067
UNKNOWN                 
1 85027U          25348.32641946  .00000282  00000+0  34122-3 0  9995
2 85027  66.0415  97.6226 0177461 189.8706 169.8856 13.74247022604839
UNKNOWN                 
1 85047U          25348.35083277  .00018055  00000+0  28822-1 0  9992
2 85047 102.1965 314.1258 0159283   4.8271 355.4345 13.44234169576873
UNKNOWN                 
1 85061U          25343.90866118  .00003865  00000+0  15577-1 0  9993
2 85061 102.3970 327.4600 0260716 199.5860 189.4942 12.76975162555420
UNKNOWN                 
1 85100U          25348.41138733  .00000444  00000+0  14704-3 0  9996
2 85100  74.0447 219.6949 0011319  88.1372  90.8621 14.40711597633586
UNKNOWN                 
1 85106U          25347.56781326  .00000804  00000+0  92457-3 0  9990
2 85106 100.0568  88.4693 0009341  11.9753   4.8308 13.72899841603186
UNKNOWN                 
1 85151U          25347.44768229  .00040634  00000+0  55230-2 0  9996
2 85151  98.4034 211.5153 0007980 121.2909 238.9083 14.78620513479635
UNKNOWN                 
1 85210U          25347.65605450  .00001183  00000+0  11570-2 0  9996
2 85210  99.8557 128.6686 0216429 311.7989  61.1683 13.71536600602285
UNKNOWN                 
1 85217U          25347.07228201  .00005024  00000+0  13226-2 0  9992
2 85217  98.0308  81.4481 0209092 127.3344 234.7099 14.37201759627902
UNKNOWN                 
1 85237U          25345.34575522  .00013330  00000+0  27824-2 0  9991
2 85237  65.5337 218.5772 0512527  28.2881 334.5032 14.00933118608159
UNKNOWN                 
1 85238U          25348.04777661  .00000061  00000+0  85294-4 0  9994
2 85238  99.0620 277.1917 0063034 196.4236 176.4436 13.88342551611026
UNKNOWN                 
1 85246U          25348.24135870  .00002383  00000+0  86248-3 0  9993
2 85246  97.9868 351.5964 0222197 299.7489  58.1749 14.21510222623283
UNKNOWN                 
1 85373U          25347.34047547  .00003332  00000+0  22761-2 0  9991
2 85373 100.4285  23.5065 0051251 236.1818 187.3816 13.99999885612218
UNKNOWN                 
1 85418U          25344.09285013  .00000000  00000+0  00000+0 0  9990
2 85418   4.9976 224.9058 0001461 215.0738 301.8487 15.12847580    03
UNKNOWN                 
1 87014U          25347.88175147  .00002778  00000+0  42820-2 0  9993
2 87014 100.4914 312.2343 0048634 244.8250 135.0722 13.51870945591074
UNKNOWN                 
1 87029U          25336.55533337  .00001234  00000+0  77827-3 0  9992
2 87029  98.7581  12.1757 0081014 278.7103  80.4895 14.04451333591570
UNKNOWN                 
1 87042U          25345.39886355  .00001303  00000+0  79670-3 0  9995
2 87042  98.7145  28.6610 0044190  99.5236 261.0931 14.07106738553778
UNKNOWN                 
1 87051U          25348.46201050  .00001722  00000+0  61402-3 0  9998
2 87051  65.7282 250.2176 0714790 140.6185 224.9151 13.45855808588810
UNKNOWN                 
1 87054U          25347.93346060  .00002606  00000+0  14768-2 0  9997
2 87054 100.0927 227.5006 0013693 343.0306  17.0401 14.11068023616493
UNKNOWN                 
1 87071U          25348.31952477  .00003547  00000+0  13050-2 0  9992
2 87071  61.2206 267.1305 0477213 238.2790 117.0888 13.85633629602705
UNKNOWN                 
1 87129U          25347.73288609  .00000189  00000+0  16989-2 0  9993
2 87129 102.2626  78.7128 0029538  88.7264 271.7183 12.42817028546798
UNKNOWN                 
1 87159U          25346.18539339  .00001692  00000+0  19725-2 0  9994
2 87159  90.3495  69.3854 0104721 257.3218 101.6218 13.66058146556612
UNKNOWN                 
1 87163U          25347.81171945  .00004366  00000+0  13292-2 0  9999
2 87163  65.6006 233.6626 0642405  64.1333 302.4512 13.63936270577667
UNKNOWN                 
1 87164U          25346.69535826  .00007654  00000+0  15649-2 0  9998
2 87164  65.2047 327.8396 0098167  54.2858 306.7326 14.58376095635765
UNKNOWN                 
1 87204U          25347.55154186  .00003281  00000+0  12903-2 0  9997
2 87204  98.5359 208.3528 0046197 323.1340  36.6669 14.29338099625550
UNKNOWN                 
1 87211U          25348.25191935  .00003866  00000+0  10692-2 0  9998
2 87211  99.0860 348.1723 0053477 154.0126 222.2697 14.46486893707991
UNKNOWN                 
1 87214U          25341.76290563  .00001360  00000+0  12421-2 0  9996
2 87214 100.3311 339.9413 0074280 267.0757  92.1891 13.84086964599552
UNKNOWN                 
1 87237U          25346.98008166  .00000617  00000+0  49986-3 0  9997
2 87237  99.2568  42.4630 0102543 283.5735 199.2483 13.91753068611798
UNKNOWN                 
1 87239U          25346.53631627  .00013377  00000+0  32997-2 0  9994
2 87239  82.8751  83.0425 0018302  48.2036 312.0723 14.51961277627849
UNKNOWN                 
1 87245U          25347.64054579  .00005160  00000+0  10768-2 0  9992
2 87245  65.6421  45.4029 0429833 120.7936 321.9123 14.15853181614338
UNKNOWN                 
1 87271U          25348.38285211  .00008129  00000+0  15107-2 0  9992
2 87271  65.7547 231.8856 0419413  72.7206 291.9313 14.21685280612600
UNKNOWN                 
1 87280U          25348.38154430  .00000440  00000+0  79832-3 0  9994
2 87280  64.6147 231.3135 0129415 260.4711  98.1683 13.48555755534078
UNKNOWN                 
1 87293U          25348.50097298  .00003954  00000+0  79748-3 0  9999
2 87293  65.8956 140.5626 0426385 358.7065   1.2878 14.18039344614246
UNKNOWN                 
1 87300U          25342.21731770  .00002715  00000+0  18942-2 0  9992
2 87300 100.0855 324.2212 0028913 304.5535  55.2897 13.99405992612481
UNKNOWN                 
1 87304U          25347.25530716  .00003614  00000+0  53488-3 0  9996
2 87304  74.0197 319.9405 0019467 287.7335  72.1714 14.75435041646557
UNKNOWN                 
1 87320U          25348.34226284  .00001193  00000+0  78296-3 0  9991
2 87320  66.5943  80.4532 0415114  53.7588 310.1101 13.70057837593969
UNKNOWN                 
1 87334U          25348.26860775  .00023479  00000+0  13834-1 0  9992
2 87334  89.9931 271.7131 0061984 252.0847 107.3572 14.06810135386869
UNKNOWN                 
1 87335U          25348.28013155  .00020923  00000+0  12140-1 0  9997
2 87335  89.9771 268.0170 0073523 223.6004 135.9355 14.07271967387193
UNKNOWN                 
1 87405U          25346.49831434  .00003094  00000+0  22046-2 0  9991
2 87405  82.7504  60.3116 0056567 331.1786  28.6260 13.96356133611122
UNKNOWN                 
1 87426U          25348.39942896  .00006621  00000+0  25431-2 0  9990
2 87426  65.7846 330.0540 0070490 290.7474 220.7320 14.29669562622829
UNKNOWN                 
1 87448U          25348.02204747  .00001899  00000+0  15427-2 0  9996
2 87448 100.4517 194.7019 0062722 201.6018 158.2488 13.90608108609411
UNKNOWN                 
1 87456U          25347.57196331  .00005689  00000+0  85720-3 0  9998
2 87456  65.7812  88.7898 0510781   4.5225 356.0215 14.13484514611611
